STARLINK-36570          
1 67640U 26020Z   26047.62210232  .00568595  00000+0  32270-2 0  9993
2 67640  42.9971 269.9815 0002882 251.6894 108.3662 15.76638843  2764
STARLINK-36514          
1 67641U 26020AA  26046.97312744  .00332540  00000+0  15176-2 0  9997
2 67641  42.9971 273.7083 0002102 287.5900  72.4742 15.82076642  2665
STARLINK-36556          
1 67642U 26020AB  26045.89986705  .00445320  00000+0  20883-2 0  9994
2 67642  42.9973 280.2837 0000965 131.0329 229.0626 15.81195695  2492
STARLINK-36533          
1 67643U 26020AC  26046.92733343  .00227581  00000+0  13610-2 0  9995
2 67643  42.9970 274.2347 0001831 284.6112  75.4554 15.76405084  2658
STARLINK-36623          
1 67644U 26020AD  26047.61772322  .00548434  00000+0  31204-2 0  9995
2 67644  42.9971 269.9437 0002741 250.2943 109.7631 15.76636919  2765
STARLINK-36619          
1 67645U 26020AE  26047.58335648 -.00013432  00000+0 -79595-4 0  9992
2 67645  42.9979 270.1223 0001775 275.7265 261.5116 15.76372868  3997
ALSAT-3B                
1 67646U 26021A   26047.56583977  .00007693  00000+0  32350-3 0  9999
2 67646  97.4714 121.9938 0012148 203.6994 156.3684 15.23621546  2500
CZ-2C R/B               
1 67647U 26021B   26047.56893474  .00013843  00000+0  41767-3 0  9992
2 67647  97.6555 122.6129 0153487  84.6423 277.2303 15.23506790  2483
STARLINK-36719          
1 67648U 26022A   26047.58335648 -.00150279  00000+0 -10203-2 0  9997
2 67648  97.2843  80.5075 0001506  84.4009 342.8010 15.75283937  3504
STARLINK-36342          
1 67649U 26022B   26047.58335648 -.00126274  00000+0 -85521-3 0  9992
2 67649  97.2845  80.5090 0001311 101.1689 330.0366 15.75272439  3507
STARLINK-36703          
1 67650U 26022C   26047.58335648  .00056625  00000+0  37795-3 0  9994
2 67650  97.2843  80.5114 0001378  98.9270 338.2897 15.75192731  3501
STARLINK-36696          
1 67651U 26022D   26047.58335648 -.00119598  00000+0 -80958-3 0  9995
2 67651  97.2842  80.5156 0001627  89.5780 357.6352 15.75264087  3501
